[{"OBJECT_NAME":"STARLINK-5369","OBJECT_ID":"2022-177T","EPOCH":"2026-03-09T04:46:13.073088","MEAN_MOTION":15.02534269,"ECCENTRICITY":0.00011479,"INCLINATION":43.0015,"RA_OF_ASC_NODE":135.8119,"ARG_OF_PERICENTER":273.0142,"MEAN_ANOMALY":87.0569,"EPHEMERIS_TYPE":0,"CLASSIFICATION_TYPE":"U","NORAD_CAT_ID":54837,"ELEMENT_SET_NO":999,"REV_AT_EPOCH":17688,"BSTAR":3.3648485e-5,"MEAN_MOTION_DOT":2.51e-6,"MEAN_MOTION_DDOT":0},{"OBJECT_NAME":"OBJECT H","OBJECT_ID":"2025-292H","EPOCH":"2026-03-09T22:24:53.558208","MEAN_MOTION":15.06373042,"ECCENTRICITY":0.00142604,"INCLINATION":97.6442,"RA_OF_ASC_NODE":145.7846,"ARG_OF_PERICENTER":348.9217,"MEAN_ANOMALY":11.1694,"EPHEMERIS_TYPE":0,"CLASSIFICATION_TYPE":"U","NORAD_CAT_ID":67000,"ELEMENT_SET_NO":999,"REV_AT_EPOCH":1338,"BSTAR":0.0005462937,"MEAN_MOTION_DOT":8.001e-5,"MEAN_MOTION_DDOT":0}]
